STARLINK-1498
1 15782C 20038BE  21326.14322173 -.00009857  00000-0 -66047-3 0  3267
2 15782  53.0548  38.1037 0001389  67.2200   2.2482 15.06405144    12
